[{"OBJECT_NAME":"SKYKRAFT-1A","OBJECT_ID":"2023-001AX","EPOCH":"2026-03-09T17:03:19.828224","MEAN_MOTION":15.28083228,"ECCENTRICITY":0.00112767,"INCLINATION":97.3349,"RA_OF_ASC_NODE":127.629,"ARG_OF_PERICENTER":121.5092,"MEAN_ANOMALY":238.7251,"EPHEMERIS_TYPE":0,"CLASSIFICATION_TYPE":"U","NORAD_CAT_ID":55054,"ELEMENT_SET_NO":999,"REV_AT_EPOCH":17652,"BSTAR":0.0003006872,"MEAN_MOTION_DOT":8.177e-5,"MEAN_MOTION_DDOT":0},{"OBJECT_NAME":"STARLINK-31539","OBJECT_ID":"2024-074F","EPOCH":"2026-03-09T04:02:03.385536","MEAN_MOTION":15.27566314,"ECCENTRICITY":0.00011271,"INCLINATION":43.0066,"RA_OF_ASC_NODE":346.5499,"ARG_OF_PERICENTER":353.7108,"MEAN_ANOMALY":6.3729,"EPHEMERIS_TYPE":0,"CLASSIFICATION_TYPE":"U","NORAD_CAT_ID":59539,"ELEMENT_SET_NO":999,"REV_AT_EPOCH":10593,"BSTAR":-7.343736e-6,"MEAN_MOTION_DOT":-4.64e-6,"MEAN_MOTION_DDOT":0}]
